#aV2011 10 16  0  0   .00000000      96 DD+AD WGS84 FIT  NGA
## 1658       .00000000   900.00000000 55850  .0000000000000
+   31     1  2  3  4  5  6  7  8  9 10 11 12 13 14 15 16 17
+         18 19 20 21 22 23 25 26 27 28 29 30 31 32  0  0  0
+          0  0  0  0  0  0  0  0  0  0  0  0  0  0  0  0  0
+          0  0  0  0  0  0  0  0  0  0  0  0  0  0  0  0  0
+          0  0  0  0  0  0  0  0  0  0  0  0  0  0  0  0  0
++         0  0  0  0  0  0  0  0  0  0  0  0  0  0  0  0  0
++         0  0  0  0  0  0  0  0  0  0  0  0  0  0  0  0  0
++         0  0  0  0  0  0  0  0  0  0  0  0  0  0  0  0  0
++         0  0  0  0  0  0  0  0  0  0  0  0  0  0  0  0  0
++         0  0  0  0  0  0  0  0  0  0  0  0  0  0  0  0  0
%c cc cc ccc ccc cccc cccc cccc cccc ccccc ccccc ccccc ccccc
%c cc cc ccc ccc cccc cccc cccc cccc ccccc ccccc ccccc ccccc
%f  0.0000000  0.000000000  0.00000000000  0.000000000000000
%f  0.0000000  0.000000000  0.00000000000  0.000000000000000
%i    0    0    0    0      0      0      0      0         0
%i    0    0    0    0      0      0      0      0         0
/*      NGA, ST. LOUIS,MO.                                  
/*   EPHEMERIS COMPUTED FROM  3 DAYS OF DATA                
/* CCCCCCCCCCCCCCCCCCCCCCCCCCCCCCCCCCCCCCCCCCCCCCCCCCCCCCCCC
/* CCCCCCCCCCCCCCCCCCCCCCCCCCCCCCCCCCCCCCCCCCCCCCCCCCCCCCCCC
*  2011 10 16 23 30   .00000000                                                 
P  1   3807.753284  14743.166900 -21774.381778     31.603366                    
V  1 -26747.294450   6887.112306    -12.563544       .293713                    
P  2  18578.189156 -14193.855811  12193.343518    361.142950                    
V  2  15908.826944   -908.979663 -25947.999579       .017787                    
P  3 -10697.722219  21870.693057   9803.251090    782.276323                    
V  3  -1705.873046 -13655.276250  27652.562977       .050876                    
P  4  26103.513043  -5791.265676   -925.836652    262.616043                    
V  4    -91.531976   3351.612805 -30998.115169       .113401                    
P  5   7358.182006 -14096.257273  21246.052864   -232.648437                    
V  5  19283.775619  18984.754295   6030.710046      -.051043                    
P  6 -14201.217526  17956.144131  13385.456524    -48.253684                    
V  6    895.962799 -17167.123279  24477.359552       .072105                    
P  7  18683.455689   7679.090766  17385.808595     32.144583                    
V  7 -21029.439182   6313.894893  19590.253995       .020286                    
P  8  25035.178300   2308.776792   9476.198251       .036574                    
V  8 -11447.816798   2828.220032  29146.000199      -.000805                    
P  9    621.769667 -15412.639437 -22174.474880    112.211088                    
V  9  25951.164825  -6605.015078   5430.957092       .024629                    
P 10  19983.260738   3496.150899  17113.327727    -16.390269                    
V 10  13672.046617  17405.187483 -18885.047936      -.010795                    
P 11  -1530.050835  18623.741379 -19128.003298   -195.379106                    
V 11 -21984.661605   9786.177383  11847.973216      -.034156                    
P 12  -9409.366023 -21910.164557 -11870.922926     28.932429                    
V 12  11537.756124   9751.238480 -26958.136226       .023422                    
P 13   7197.643121  16662.010892  19226.603228    246.289480                    
V 13  -9781.278739  22663.261088 -15946.871606      -.019040                    
P 14 -15956.218911   3477.047509 -20737.138957    177.121621                    
V 14   8144.558835 -25456.905869 -10589.036015       .017012                    
P 15   3626.765340 -25846.735674  -4358.613494   -102.354046                    
V 15   4641.737436  -4546.399089  30930.413021       .013166                    
P 16  -6806.046681  14058.737549  21447.582508   -203.739018                    
V 16 -18632.381938 -19835.306816   7379.904766      -.021020                    
P 17  16136.430433  -3003.162716 -20685.976856    170.316096                    
V 17  -7250.033044  25666.938702  -9548.646794      -.018046                    
P 18 -20316.923079 -16722.888116  -4505.075525    162.479556                    
V 18  -1718.318090  -6758.745653  30170.528440       .018714                    
P 19  -7818.433291  25066.522326  -2356.541491   -195.005007                    
V 19  -4036.574622   1656.804623  31764.397614      -.039655                    
P 20  10825.106080  21695.707678 -11065.415229     54.497188                    
V 20 -12170.386198  -7339.922973 -26581.760940       .006118                    
P 21 -21854.758769  -6008.505956  14749.237055   -178.346061                    
V 21  16813.779342  -6306.946178  22433.938826      -.024867                    
P 22 -20682.962107  -4845.880533 -15831.197714    143.895202                    
V 22 -12133.348050 -16689.132901  20614.990715      -.004304                    
P 23   2136.390995  23156.981019  12513.747365    267.339366                    
V 23  -7014.627225  14584.494602 -26196.056665      -.031642                    
P 25 -17521.610517 -19863.994561  -2184.185452     23.698864                    
V 25   3791.083567    100.694992 -31688.339685       .018223                    
P 26  12372.307180 -22444.135628   5538.171567   -193.051450                    
V 26   -542.968158   8202.887847  31506.957236      -.131048                    
P 27   7482.270940 -15666.016888 -19334.531225    315.861015                    
V 27  25350.683892  -6079.316745  14638.994257       .036848                    
P 28  20559.570318   9321.159606 -13666.724089     76.155227                    
V 28  10643.192719  14779.185625  24883.056683       .032123                    
P 29  -8179.297391 -16976.622627  18797.651566    249.020100                    
V 29   8772.354903 -22080.036010 -16138.053869       .033320                    
P 30 -22209.298434  -7695.452201  12021.309679     68.176439                    
V 30 -10464.432775 -12169.950702 -26302.736096      -.064322                    
P 31 -25260.857312   8073.345155   3117.070488    156.363330                    
V 31  -4029.554826  -1078.886884 -31723.095653       .052767                    
P 32   2365.382032  21025.665318 -16060.021163   -346.578633                    
V 32 -14467.710744 -14945.721797 -20916.828029      -.061794                    
EOF
